NORAD_CAT_ID,OBJECT_NAME,OBJECT_TYPE,EPOCH,MEAN_MOTION,ECCENTRICITY,INCLINATION,RA_OF_ASC_NODE,ARG_OF_PERICENTER,MEAN_ANOMALY,BSTAR,MEAN_MOTION_DOT,MEAN_MOTION_DDOT,TLE_LINE0,TLE_LINE1,TLE_LINE2,SEMIMAJOR_AXIS,PERIOD,APOGEE,PERIGEE,DECAYED
52479.0,STARLINK-3878,PAYLOAD,2024-04-24 14:04:18,15.0882727,0.0001956,53.2178,240.1822,74.1877,285.9331,-0.00013458,-2.429e-05,0.0,0 STARLINK-3878,1 52479U 22049AE  24115.58631984 -.00002429  00000-0 -13458-3 0  9994,2 52479  53.2178 240.1822 0001956  74.1877 285.9331 15.08827270110350,6917.919,95.438,541.137,538.431,0.0
52479.0,STARLINK-3878,PAYLOAD,2024-04-24 15:39:40,15.0884439,0.000158,53.2182,239.8881,86.9559,273.1614,0.00021984,3.213e-05,0.0,0 STARLINK-3878,1 52479U 22049AE  24115.65255447  .00003213  00000-0  21984-3 0  9991,2 52479  53.2182 239.8881 0001580  86.9559 273.1614 15.08844390109281,6917.867,95.437,540.825,538.639,0.0
52479.0,STARLINK-3878,PAYLOAD,2024-04-25 12:19:41,15.08840965,0.0001803,53.2181,236.0201,70.1471,289.9715,5.692e-05,6.18e-06,0.0,0 STARLINK-3878,1 52479U 22049AE  24116.51367752  .00000618  00000-0  56920-4 0  9995,2 52479  53.2181 236.0201 0001803  70.1471 289.9715 15.08840965109417,6917.877,95.437,540.99,538.495,0.0
52479.0,STARLINK-3878,PAYLOAD,2024-04-25 13:55:04,15.08844648,0.0001866,53.2184,235.7227,69.2619,290.8573,5.4835e-05,5.85e-06,0.0,0 STARLINK-3878,1 52479U 22049AE  24116.57991648  .00000585  00000-0  54835-4 0  9994,2 52479  53.2184 235.7227 0001866  69.2619 290.8573 15.08844648110503,6917.866,95.437,541.022,538.44,0.0
52479.0,STARLINK-3878,PAYLOAD,2024-04-25 15:30:27,15.08845432,0.0001817,53.2183,235.4248,67.4102,292.7082,0.00020756,3.017e-05,0.0,0 STARLINK-3878,1 52479U 22049AE  24116.64615590  .00003017  00000-0  20756-3 0  9998,2 52479  53.2183 235.4248 0001817  67.4102 292.7082 15.08845432110514,6917.864,95.437,540.986,538.472,0.0
52479.0,STARLINK-3878,PAYLOAD,2024-04-26 13:45:51,15.08844998,0.0001308,53.2178,231.2585,95.1156,264.9986,5.9142e-05,6.54e-06,0.0,0 STARLINK-3878,1 52479U 22049AE  24117.57351364  .00000654  00000-0  59142-4 0  9993,2 52479  53.2178 231.2585 0001308  95.1156 264.9986 15.08844998109572,6917.865,95.437,540.635,538.825,0.0
52479.0,STARLINK-3878,PAYLOAD,2024-04-26 15:21:14,15.08862224,0.000167,53.2181,230.965,73.2957,286.8218,0.00037748,5.728e-05,0.0,0 STARLINK-3878,1 52479U 22049AE  24117.63974908  .00005728  00000-0  37748-3 0  9999,2 52479  53.2181 230.9650 0001670  73.2957 286.8218 15.08862224109587,6917.812,95.436,540.833,538.522,0.0
52479.0,STARLINK-3878,PAYLOAD,2024-04-27 13:36:38,15.08846961,0.0001344,53.2171,226.7973,104.2646,255.8495,3.691e-06,-2.29e-06,0.0,0 STARLINK-3878,1 52479U 22049AE  24118.56710799 -.00000229  00000-0  36910-5 0  9992,2 52479  53.2171 226.7973 0001344 104.2646 255.8495 15.08846961109724,6917.859,95.437,540.654,538.794,0.0
52479.0,STARLINK-3878,PAYLOAD,2024-04-28 13:27:26,15.08833066,0.0001457,53.2184,222.3398,89.2241,270.8918,-0.0002052,-3.552e-05,0.0,0 STARLINK-3878,1 52479U 22049AE  24119.56072907 -.00003552  00000-0 -20520-3 0  9996,2 52479  53.2184 222.3398 0001457  89.2241 270.8918 15.08833066109874,6917.902,95.438,540.775,538.759,0.0
52479.0,STARLINK-3878,PAYLOAD,2024-04-29 13:18:13,15.08846201,0.0001429,53.2178,217.8811,84.2705,275.845,0.00028245,4.211e-05,0.0,0 STARLINK-3878,1 52479U 22049AE  24120.55431854  .00004211  00000-0  28245-3 0  9990,2 52479  53.2178 217.8811 0001429  84.2705 275.8450 15.08846201110025,6917.861,95.437,540.715,538.738,0.0
52479.0,STARLINK-3878,PAYLOAD,2024-04-30 13:09:00,15.08837825,0.0001335,53.2167,213.4193,79.6504,280.4638,0.00056474,8.711e-05,0.0,0 STARLINK-3878,1 52479U 22049AE  24121.54792572  .00008711  00000-0  56474-3 0  9991,2 52479  53.2167 213.4193 0001335  79.6504 280.4638 15.08837825110177,6917.887,95.438,540.676,538.828,0.0
52479.0,STARLINK-3878,PAYLOAD,2024-05-01 12:59:47,15.08843511,0.0001244,53.2161,208.96,80.6522,279.461,-5.1417e-05,-1.106e-05,0.0,0 STARLINK-3878,1 52479U 22049AE  24122.54151707 -.00001106  00000-0 -51417-4 0  9997,2 52479  53.2161 208.9600 0001244  80.6522 279.4610 15.08843511111408,6917.87,95.437,540.595,538.874,0.0
52479.0,STARLINK-3878,PAYLOAD,2024-05-01 22:32:09,15.08801824,0.0001507,53.2171,207.1748,83.4202,276.6962,-0.00027519,-4.66e-05,0.0,0 STARLINK-3878,1 52479U 22049AE  24122.93899900 -.00004660  00000-0 -27519-3 0  9997,2 52479  53.2171 207.1748 0001507  83.4202 276.6962 15.08801824110387,6917.997,95.44,540.905,538.82,0.0
52479.0,STARLINK-3878,PAYLOAD,2024-05-02 12:50:35,15.0884288,0.0001192,53.2161,204.4998,108.8581,251.2541,9.1402e-05,1.167e-05,0.0,0 STARLINK-3878,1 52479U 22049AE  24123.53513005  .00001167  00000-0  91402-4 0  9993,2 52479  53.2161 204.4998 0001192 108.8581 251.2541 15.08842880110474,6917.872,95.437,540.561,538.912,0.0
52479.0,STARLINK-3878,PAYLOAD,2024-05-02 14:25:58,15.08842408,0.0001181,53.2161,204.2022,100.4567,259.6558,8.1861e-05,1.015e-05,0.0,0 STARLINK-3878,1 52479U 22049AE  24123.60137085  .00001015  00000-0  81861-4 0  9991,2 52479  53.2161 204.2022 0001181 100.4567 259.6558 15.08842408111567,6917.873,95.437,540.555,538.921,0.0
52479.0,STARLINK-3878,PAYLOAD,2024-05-03 04:44:24,15.08861428,0.0001215,53.2154,201.5245,87.0562,273.0569,0.00032817,4.942e-05,0.0,0 STARLINK-3878,1 52479U 22049AE  24124.19751129  .00004942  00000-0  32817-3 0  9995,2 52479  53.2154 201.5245 0001215  87.0562 273.0569 15.08861428110574,6917.815,95.436,540.52,538.839,0.0
52479.0,STARLINK-3878,PAYLOAD,2024-05-03 14:16:44,15.0885958,0.0001734,53.2158,199.7397,89.1116,271.0075,0.001029,0.00016135,0.0,0 STARLINK-3878,1 52479U 22049AE  24124.59496018  .00016135  00000-0  10290-2 0  9999,2 52479  53.2158 199.7397 0001734  89.1116 271.0075 15.08859580111711,6917.821,95.436,540.885,538.486,0.0
52479.0,STARLINK-3878,PAYLOAD,2024-05-03 22:13:40,15.08842492,0.0001108,53.2148,198.2551,92.6666,267.4453,0.00040751,6.204e-05,0.0,0 STARLINK-3878,1 52479U 22049AE  24124.92616658  .00006204  00000-0  40751-3 0  9992,2 52479  53.2148 198.2551 0001108  92.6666 267.4453 15.08842492111768,6917.873,95.437,540.504,538.971,0.0
52479.0,STARLINK-3878,PAYLOAD,2024-05-04 10:56:46,15.08831797,0.0001249,53.2156,195.875,97.4502,262.6632,4.8462e-06,-2.11e-06,0.0,0 STARLINK-3878,1 52479U 22049AE  24125.45609279 -.00000211  00000-0  48462-5 0  9994,2 52479  53.2156 195.8750 0001249  97.4502 262.6632 15.08831797110760,6917.905,95.438,540.635,538.906,0.0
52479.0,STARLINK-3878,PAYLOAD,2024-05-04 22:04:27,15.08847396,0.0001399,53.2163,193.7931,105.9829,254.1317,-3.6465e-05,-8.68e-06,0.0,0 STARLINK-3878,1 52479U 22049AE  24125.91976381 -.00000868  00000-0 -36465-4 0  9994,2 52479  53.2163 193.7931 0001399 105.9829 254.1317 15.08847396110835,6917.858,95.437,540.691,538.755,0.0
52479.0,STARLINK-3878,PAYLOAD,2024-05-05 10:47:31,15.0886204,0.0001339,53.2161,191.4135,103.5028,256.6113,2.8419e-05,1.65e-06,0.0,0 STARLINK-3878,1 52479U 22049AE  24126.44967291  .00000165  00000-0  28419-4 0  9991,2 52479  53.2161 191.4135 0001339 103.5028 256.6113 15.08862040110916,6917.813,95.436,540.604,538.752,0.0
52479.0,STARLINK-3878,PAYLOAD,2024-05-05 21:55:14,15.08848547,0.0001273,53.2154,189.3323,103.0978,257.0156,0.00018523,2.662e-05,0.0,0 STARLINK-3878,1 52479U 22049AE  24126.91335888  .00002662  00000-0  18523-3 0  9992,2 52479  53.2154 189.3323 0001273 103.0978 257.0156 15.08848547112065,6917.854,95.437,540.6,538.839,0.0
52479.0,STARLINK-3878,PAYLOAD,2024-05-06 04:16:47,15.08845086,0.0001325,53.2152,188.1438,100.4742,259.6399,0.00033324,5.02e-05,0.0,0 STARLINK-3878,1 52479U 22049AE  24127.17832206  .00005020  00000-0  33324-3 0  9994,2 52479  53.2152 188.1438 0001325 100.4742 259.6399 15.08845086111022,6917.865,95.437,540.646,538.813,0.0
52479.0,STARLINK-3878,PAYLOAD,2024-05-06 10:38:19,15.08844693,0.0001244,53.2155,186.9562,92.2534,267.8601,0.00037593,5.701e-05,0.0,0 STARLINK-3878,1 52479U 22049AE  24127.44328296  .00005701  00000-0  37593-3 0  9991,2 52479  53.2155 186.9562 0001244  92.2534 267.8601 15.08844693112140,6917.866,95.437,540.592,538.87,0.0
52479.0,STARLINK-3878,PAYLOAD,2024-05-07 10:29:06,15.08848023,0.0001453,53.2177,182.494,97.7368,262.379,5.7727e-05,6.31e-06,0.0,0 STARLINK-3878,1 52479U 22049AE  24128.43687785  .00000631  00000-0  57727-4 0  9991,2 52479  53.2177 182.4940 0001453  97.7368 262.3790 15.08848023111219,6917.856,95.437,540.726,538.716,0.0
52479.0,STARLINK-3878,PAYLOAD,2024-05-08 03:58:21,15.08836973,0.0001342,53.2172,179.2227,94.4274,265.6871,6.5908e-05,7.61e-06,0.0,0 STARLINK-3878,1 52479U 22049AE  24129.16552432  .00000761  00000-0  65908-4 0  9996,2 52479  53.2172 179.2227 0001342  94.4274 265.6871 15.08836973111322,6917.89,95.438,540.683,538.826,0.0
52479.0,STARLINK-3878,PAYLOAD,2024-05-08 10:19:53,15.08839237,0.0001338,53.217,178.0335,93.8582,266.2563,7.2439e-05,8.65e-06,0.0,0 STARLINK-3878,1 52479U 22049AE  24129.43048258  .00000865  00000-0  72439-4 0  9994,2 52479  53.2170 178.0335 0001338  93.8582 266.2563 15.08839237112442,6917.883,95.438,540.673,538.822,0.0
52479.0,STARLINK-3878,PAYLOAD,2024-05-08 19:52:12,15.08839829,0.0001282,53.2165,176.2486,90.8541,269.2598,5.1898e-05,5.38e-06,0.0,0 STARLINK-3878,1 52479U 22049AE  24129.82792198  .00000538  00000-0  51898-4 0  9999,2 52479  53.2165 176.2486 0001282  90.8541 269.2598 15.08839829112508,6917.881,95.438,540.633,538.859,0.0
52479.0,STARLINK-3878,PAYLOAD,2024-05-09 10:10:40,15.08838417,0.0001389,53.2171,173.5741,97.2333,262.8817,6.4777e-05,7.43e-06,0.0,0 STARLINK-3878,1 52479U 22049AE  24130.42408459  .00000743  00000-0  64777-4 0  9999,2 52479  53.2171 173.5741 0001389  97.2333 262.8817 15.08838417111512,6917.885,95.438,540.711,538.789,0.0
52479.0,STARLINK-3878,PAYLOAD,2024-05-10 10:01:27,15.08845105,0.0001419,53.2171,169.1137,95.1656,264.9498,0.00013843,1.916e-05,0.0,0 STARLINK-3878,1 52479U 22049AE  24131.41768152  .00001916  00000-0  13843-3 0  9998,2 52479  53.2171 169.1137 0001419  95.1656 264.9498 15.08845105112747,6917.865,95.437,540.711,538.748,0.0
